ORBCOMM FM37 [-]        
1 33064U 08031E   24005.30458758  .00001838  00000+0  29591-3 0  9997
2 33064  48.4424 329.5874 0006292 275.3514 237.8606 14.75668477835832
ORBCOMM FM40 [-]        
1 33065U 08031F   24005.26962660  .00002346  00000+0  35984-3 0  9993
2 33065  48.4444 320.2687 0007468 282.8418 219.0663 14.76827023835859
VESSELSAT 1 [-]         
1 37840U 11058C   24005.49168172  .00000383  00000+0  64916-4 0  9999
2 37840  19.9636  52.3573 0013825 130.8307 229.3298 14.11099637631538
ORBCOMM FM109 [+]       
1 40086U 14040A   24005.34491837  .00000898  00000+0  23861-3 0  9994
2 40086  47.0056 350.0344 0001784  11.4758 348.6167 14.56226134503936
ORBCOMM FM107 [+]       
1 40087U 14040B   24005.37905830  .00000908  00000+0  24087-3 0  9994
2 40087  47.0074 350.8193 0001957 333.9155  26.1631 14.56220371504013
ORBCOMM FM106 [-]       
1 40088U 14040C   24005.57837163  .00000959  00000+0  20434-3 0  9998
2 40088  47.0596 212.2402 0017889 136.9115 223.3178 14.66418524505811
ORBCOMM FM111 [-]       
1 40089U 14040D   24005.42875462  .00002677  00000+0  36754-3 0  9998
2 40089  47.0043 128.6465 0034108 193.1124 166.8887 14.80718103511723
ORBCOMM FM104 [-]       
1 40090U 14040E   24005.01803493  .00000674  00000+0  19438-3 0  9995
2 40090  47.0074  20.0515 0018252 308.2645  51.6597 14.54749078503523
